[{"OBJECT_NAME":"CSS (TIANHE)","OBJECT_ID":"2021-035A","EPOCH":"2026-04-12T03:57:55.171296","MEAN_MOTION":15.62300157,"ECCENTRICITY":0.00049717,"INCLINATION":41.4686,"RA_OF_ASC_NODE":4.2206,"ARG_OF_PERICENTER":190.5766,"MEAN_ANOMALY":169.497,"EPHEMERIS_TYPE":0,"CLASSIFICATION_TYPE":"U","NORAD_CAT_ID":48274,"ELEMENT_SET_NO":999,"REV_AT_EPOCH":28284,"BSTAR":0.00020763917,"MEAN_MOTION_DOT":0.00018582,"MEAN_MOTION_DDOT":0},{"OBJECT_NAME":"COSMOS 2550","OBJECT_ID":"2021-056A","EPOCH":"2026-04-12T07:04:34.887072","MEAN_MOTION":15.33831232,"ECCENTRICITY":0.00083489,"INCLINATION":67.1433,"RA_OF_ASC_NODE":299.2292,"ARG_OF_PERICENTER":269.338,"MEAN_ANOMALY":90.6818,"EPHEMERIS_TYPE":0,"CLASSIFICATION_TYPE":"U","NORAD_CAT_ID":48865,"ELEMENT_SET_NO":999,"REV_AT_EPOCH":26861,"BSTAR":6.3771e-7,"MEAN_MOTION_DOT":-1.71e-6,"MEAN_MOTION_DDOT":0},{"OBJECT_NAME":"CZ-2C R/B","OBJECT_ID":"2022-058K","EPOCH":"2026-04-12T07:15:00.315936","MEAN_MOTION":15.56861714,"ECCENTRICITY":0.00405542,"INCLINATION":50.187,"RA_OF_ASC_NODE":145.0492,"ARG_OF_PERICENTER":344.8599,"MEAN_ANOMALY":15.1156,"EPHEMERIS_TYPE":0,"CLASSIFICATION_TYPE":"U","NORAD_CAT_ID":52794,"ELEMENT_SET_NO":999,"REV_AT_EPOCH":21536,"BSTAR":0.00032508845,"MEAN_MOTION_DOT":0.00024298,"MEAN_MOTION_DDOT":0},{"OBJECT_NAME":"CZ-2C R/B","OBJECT_ID":"2022-132E","EPOCH":"2026-04-11T21:50:02.305824","MEAN_MOTION":15.65153466,"ECCENTRICITY":0.0014132,"INCLINATION":97.2952,"RA_OF_ASC_NODE":106.3164,"ARG_OF_PERICENTER":334.5743,"MEAN_ANOMALY":25.482,"EPHEMERIS_TYPE":0,"CLASSIFICATION_TYPE":"U","NORAD_CAT_ID":54039,"ELEMENT_SET_NO":999,"REV_AT_EPOCH":19556,"BSTAR":0.00038412,"MEAN_MOTION_DOT":0.00038075,"MEAN_MOTION_DDOT":0},{"OBJECT_NAME":"GSLV R/B","OBJECT_ID":"2022-138AN","EPOCH":"2026-04-12T03:30:25.401312","MEAN_MOTION":14.96981806,"ECCENTRICITY":0.00227947,"INCLINATION":87.3838,"RA_OF_ASC_NODE":155.1572,"ARG_OF_PERICENTER":36.2675,"MEAN_ANOMALY":324.0096,"EPHEMERIS_TYPE":0,"CLASSIFICATION_TYPE":"U","NORAD_CAT_ID":54149,"ELEMENT_SET_NO":999,"REV_AT_EPOCH":18893,"BSTAR":0.00016626114,"MEAN_MOTION_DOT":1.95e-5,"MEAN_MOTION_DDOT":0},{"OBJECT_NAME":"XRISM","OBJECT_ID":"2023-137A","EPOCH":"2026-04-12T04:23:35.503584","MEAN_MOTION":15.11896434,"ECCENTRICITY":0.00076031,"INCLINATION":31.0022,"RA_OF_ASC_NODE":66.958,"ARG_OF_PERICENTER":15.3929,"MEAN_ANOMALY":344.694,"EPHEMERIS_TYPE":0,"CLASSIFICATION_TYPE":"U","NORAD_CAT_ID":57800,"ELEMENT_SET_NO":999,"REV_AT_EPOCH":14286,"BSTAR":0.00019233826,"MEAN_MOTION_DOT":3.473e-5,"MEAN_MOTION_DDOT":0},{"OBJECT_NAME":"ACS3","OBJECT_ID":"2024-077B","EPOCH":"2026-04-12T05:57:10.623168","MEAN_MOTION":13.91348313,"ECCENTRICITY":0.0072366,"INCLINATION":97.19,"RA_OF_ASC_NODE":35.8192,"ARG_OF_PERICENTER":4.3565,"MEAN_ANOMALY":355.8215,"EPHEMERIS_TYPE":0,"CLASSIFICATION_TYPE":"U","NORAD_CAT_ID":59588,"ELEMENT_SET_NO":999,"REV_AT_EPOCH":9886,"BSTAR":0.012912206,"MEAN_MOTION_DOT":0.00016651,"MEAN_MOTION_DDOT":0},{"OBJECT_NAME":"HTV-X1","OBJECT_ID":"2025-241A","EPOCH":"2026-04-11T21:47:03.293664","MEAN_MOTION":15.32622094,"ECCENTRICITY":0.000741,"INCLINATION":51.6358,"RA_OF_ASC_NODE":272.9032,"ARG_OF_PERICENTER":302.2344,"MEAN_ANOMALY":57.7919,"EPHEMERIS_TYPE":0,"CLASSIFICATION_TYPE":"U","NORAD_CAT_ID":66174,"ELEMENT_SET_NO":999,"REV_AT_EPOCH":2603,"BSTAR":0.00016903,"MEAN_MOTION_DOT":5.039e-5,"MEAN_MOTION_DDOT":0},{"OBJECT_NAME":"SZ-21 MODULE","OBJECT_ID":"2025-246C","EPOCH":"2026-04-12T02:08:31.842816","MEAN_MOTION":15.7131613,"ECCENTRICITY":0.00042948,"INCLINATION":41.475,"RA_OF_ASC_NODE":357.3447,"ARG_OF_PERICENTER":260.2724,"MEAN_ANOMALY":99.7634,"EPHEMERIS_TYPE":0,"CLASSIFICATION_TYPE":"U","NORAD_CAT_ID":66515,"ELEMENT_SET_NO":999,"REV_AT_EPOCH":2332,"BSTAR":0.00024644966,"MEAN_MOTION_DOT":0.00032051,"MEAN_MOTION_DDOT":0}]
